KUIPER-00063            
1 64523U 25134Z   26073.68956885  .00005842  00000+0  79474-3 0  9990
2 64523  51.9015 215.9907 0000640 159.2583 200.8405 14.79929848 40744
KUIPER-00064            
1 64524U 25134AA  26073.82729643  .00005928  00000+0  80590-3 0  9993
2 64524  51.9009 212.8014 0000911 112.9412 247.1646 14.79932195 40808
KUIPER-00065            
1 64525U 25134AB  26073.61932612  .00006109  00000+0  82941-3 0  9997
2 64525  51.9029 218.8820 0000560  99.7933 260.3093 14.79943177 40683
KUIPER-00066            
1 64526U 25134AC  26073.62355549  .00022430  00000+0  94637-3 0  9997
2 64526  51.8695 160.6639 0001914  14.3447 345.7587 15.23202967 41515
KUIPER-00069            
1 64816U 25151A   26073.91388636  .00004272  00000+0  58886-3 0  9993
2 64816  51.9000 257.5228 0000605 101.4865 258.6166 14.79948053 37531
KUIPER-00070            
1 64817U 25151B   26073.85316219  .00001122  00000+0  17612-3 0  9998
2 64817  51.8983 282.7284 0000937 104.4523 255.6543 14.79929317 37184
KUIPER-00071            
1 64818U 25151C   26073.72059742  .00004173  00000+0  57898-3 0  9999
2 64818  51.9004 280.8352 0000974  94.8909 265.2165 14.79718997 36014
KUIPER-00072            
1 64819U 25151D   26073.91116044  .00001667  00000+0  24773-3 0  9991
2 64819  51.8948 259.9761 0000862 107.4278 252.6778 14.79907428 36321
KUIPER-00073            
1 64820U 25151E   26073.82210183  .00004495  00000+0  61818-3 0  9995
2 64820  51.8986 280.3797 0000688 102.3642 257.7397 14.79937276 37213
KUIPER-00074            
1 64821U 25151F   26073.91668981  .00098894  00000+0  37772-2 0  9996
2 64821  51.9020 264.7075 0002393 342.3173  72.6007 15.25806767  5230
KUIPER-00075            
1 64822U 25151G   26073.63767907  .00046924  00000+0  10965-2 0  9996
2 64822  51.8695 197.6933 0003810 308.2226  51.8419 15.41702069 37161
KUIPER-00076            
1 64823U 25151H   26073.55013979  .00004736  00000+0  64030-3 0  9999
2 64823  51.8997 271.4652 0000785  48.1654 311.9375 14.80557191 36132
KUIPER-00077            
1 64824U 25151J   26072.87934265  .00000213  00000+0  56759-4 0  9990
2 64824  51.9019 279.5468 0000965 182.5404 177.5554 14.80148959 35962
KUIPER-00078            
1 64825U 25151K   26073.72895623  .00004731  00000+0  64908-3 0  9993
2 64825  51.8996 273.3057 0001017  80.3340 279.7737 14.79934013 36124
KUIPER-00079            
1 64826U 25151L   26073.82465248  .00004271  00000+0  58917-3 0  9993
2 64826  51.9083 277.8589 0001609 276.6653  83.4126 14.79917896 37264
KUIPER-00080            
1 64827U 25151M   26073.92608203  .00004439  00000+0  61071-3 0  9996
2 64827  51.8985 277.4151 0000865 101.9230 258.1829 14.79944736 36083
