[{"OBJECT_NAME":"KUIPER-00063","OBJECT_ID":"2025-134Z","EPOCH":"2026-03-14T16:32:58.748640","MEAN_MOTION":14.79929848,"ECCENTRICITY":6.406e-5,"INCLINATION":51.9015,"RA_OF_ASC_NODE":215.9907,"ARG_OF_PERICENTER":159.2583,"MEAN_ANOMALY":200.8405,"EPHEMERIS_TYPE":0,"CLASSIFICATION_TYPE":"U","NORAD_CAT_ID":64523,"ELEMENT_SET_NO":999,"REV_AT_EPOCH":4074,"BSTAR":0.00079474082,"MEAN_MOTION_DOT":5.842e-5,"MEAN_MOTION_DDOT":0},{"OBJECT_NAME":"KUIPER-00064","OBJECT_ID":"2025-134AA","EPOCH":"2026-03-14T19:51:18.411552","MEAN_MOTION":14.79932195,"ECCENTRICITY":9.114e-5,"INCLINATION":51.9009,"RA_OF_ASC_NODE":212.8014,"ARG_OF_PERICENTER":112.9412,"MEAN_ANOMALY":247.1646,"EPHEMERIS_TYPE":0,"CLASSIFICATION_TYPE":"U","NORAD_CAT_ID":64524,"ELEMENT_SET_NO":999,"REV_AT_EPOCH":4080,"BSTAR":0.00080589642,"MEAN_MOTION_DOT":5.928e-5,"MEAN_MOTION_DDOT":0},{"OBJECT_NAME":"KUIPER-00065","OBJECT_ID":"2025-134AB","EPOCH":"2026-03-14T14:51:49.776768","MEAN_MOTION":14.79943177,"ECCENTRICITY":5.605e-5,"INCLINATION":51.9029,"RA_OF_ASC_NODE":218.882,"ARG_OF_PERICENTER":99.7933,"MEAN_ANOMALY":260.3093,"EPHEMERIS_TYPE":0,"CLASSIFICATION_TYPE":"U","NORAD_CAT_ID":64525,"ELEMENT_SET_NO":999,"REV_AT_EPOCH":4068,"BSTAR":0.00082940845,"MEAN_MOTION_DOT":6.109e-5,"MEAN_MOTION_DDOT":0},{"OBJECT_NAME":"KUIPER-00066","OBJECT_ID":"2025-134AC","EPOCH":"2026-03-14T14:57:55.194336","MEAN_MOTION":15.23202967,"ECCENTRICITY":0.00019145,"INCLINATION":51.8695,"RA_OF_ASC_NODE":160.6639,"ARG_OF_PERICENTER":14.3447,"MEAN_ANOMALY":345.7587,"EPHEMERIS_TYPE":0,"CLASSIFICATION_TYPE":"U","NORAD_CAT_ID":64526,"ELEMENT_SET_NO":999,"REV_AT_EPOCH":4151,"BSTAR":0.00094636573,"MEAN_MOTION_DOT":0.0002243,"MEAN_MOTION_DDOT":0},{"OBJECT_NAME":"KUIPER-00069","OBJECT_ID":"2025-151A","EPOCH":"2026-03-14T21:55:59.781504","MEAN_MOTION":14.79948053,"ECCENTRICITY":6.056e-5,"INCLINATION":51.9,"RA_OF_ASC_NODE":257.5228,"ARG_OF_PERICENTER":101.4865,"MEAN_ANOMALY":258.6166,"EPHEMERIS_TYPE":0,"CLASSIFICATION_TYPE":"U","NORAD_CAT_ID":64816,"ELEMENT_SET_NO":999,"REV_AT_EPOCH":3753,"BSTAR":0.00058885503,"MEAN_MOTION_DOT":4.272e-5,"MEAN_MOTION_DDOT":0},{"OBJECT_NAME":"KUIPER-00070","OBJECT_ID":"2025-151B","EPOCH":"2026-03-14T20:28:33.213216","MEAN_MOTION":14.79929317,"ECCENTRICITY":9.375e-5,"INCLINATION":51.8983,"RA_OF_ASC_NODE":282.7284,"ARG_OF_PERICENTER":104.4523,"MEAN_ANOMALY":255.6543,"EPHEMERIS_TYPE":0,"CLASSIFICATION_TYPE":"U","NORAD_CAT_ID":64817,"ELEMENT_SET_NO":999,"REV_AT_EPOCH":3718,"BSTAR":0.00017611802,"MEAN_MOTION_DOT":1.122e-5,"MEAN_MOTION_DDOT":0},{"OBJECT_NAME":"KUIPER-00071","OBJECT_ID":"2025-151C","EPOCH":"2026-03-14T17:17:39.617088","MEAN_MOTION":14.79718997,"ECCENTRICITY":9.743e-5,"INCLINATION":51.9004,"RA_OF_ASC_NODE":280.8352,"ARG_OF_PERICENTER":94.8909,"MEAN_ANOMALY":265.2165,"EPHEMERIS_TYPE":0,"CLASSIFICATION_TYPE":"U","NORAD_CAT_ID":64818,"ELEMENT_SET_NO":999,"REV_AT_EPOCH":3601,"BSTAR":0.00057897726,"MEAN_MOTION_DOT":4.173e-5,"MEAN_MOTION_DDOT":0},{"OBJECT_NAME":"KUIPER-00072","OBJECT_ID":"2025-151D","EPOCH":"2026-03-14T21:52:04.262016","MEAN_MOTION":14.79907428,"ECCENTRICITY":8.626e-5,"INCLINATION":51.8948,"RA_OF_ASC_NODE":259.9761,"ARG_OF_PERICENTER":107.4278,"MEAN_ANOMALY":252.6778,"EPHEMERIS_TYPE":0,"CLASSIFICATION_TYPE":"U","NORAD_CAT_ID":64819,"ELEMENT_SET_NO":999,"REV_AT_EPOCH":3632,"BSTAR":0.00024773368,"MEAN_MOTION_DOT":1.667e-5,"MEAN_MOTION_DDOT":0},{"OBJECT_NAME":"KUIPER-00073","OBJECT_ID":"2025-151E","EPOCH":"2026-03-14T19:43:49.598112","MEAN_MOTION":14.79937276,"ECCENTRICITY":6.881e-5,"INCLINATION":51.8986,"RA_OF_ASC_NODE":280.3797,"ARG_OF_PERICENTER":102.3642,"MEAN_ANOMALY":257.7397,"EPHEMERIS_TYPE":0,"CLASSIFICATION_TYPE":"U","NORAD_CAT_ID":64820,"ELEMENT_SET_NO":999,"REV_AT_EPOCH":3721,"BSTAR":0.00061817664,"MEAN_MOTION_DOT":4.495e-5,"MEAN_MOTION_DDOT":0},{"OBJECT_NAME":"KUIPER-00074","OBJECT_ID":"2025-151F","EPOCH":"2026-03-14T22:00:01.999584","MEAN_MOTION":15.25806767,"ECCENTRICITY":0.00023931,"INCLINATION":51.902,"RA_OF_ASC_NODE":264.7075,"ARG_OF_PERICENTER":342.3173,"MEAN_ANOMALY":72.6007,"EPHEMERIS_TYPE":0,"CLASSIFICATION_TYPE":"U","NORAD_CAT_ID":64821,"ELEMENT_SET_NO":999,"REV_AT_EPOCH":523,"BSTAR":0.0037771918,"MEAN_MOTION_DOT":0.00098894,"MEAN_MOTION_DDOT":0},{"OBJECT_NAME":"KUIPER-00075","OBJECT_ID":"2025-151G","EPOCH":"2026-03-14T15:18:15.471648","MEAN_MOTION":15.41702069,"ECCENTRICITY":0.00038109,"INCLINATION":51.8695,"RA_OF_ASC_NODE":197.6933,"ARG_OF_PERICENTER":308.2226,"MEAN_ANOMALY":51.8419,"EPHEMERIS_TYPE":0,"CLASSIFICATION_TYPE":"U","NORAD_CAT_ID":64822,"ELEMENT_SET_NO":999,"REV_AT_EPOCH":3716,"BSTAR":0.0010965011,"MEAN_MOTION_DOT":0.00046924,"MEAN_MOTION_DDOT":0},{"OBJECT_NAME":"KUIPER-00076","OBJECT_ID":"2025-151H","EPOCH":"2026-03-14T13:12:12.077856","MEAN_MOTION":14.80557191,"ECCENTRICITY":7.858e-5,"INCLINATION":51.8997,"RA_OF_ASC_NODE":271.4652,"ARG_OF_PERICENTER":48.1654,"MEAN_ANOMALY":311.9375,"EPHEMERIS_TYPE":0,"CLASSIFICATION_TYPE":"U","NORAD_CAT_ID":64823,"ELEMENT_SET_NO":999,"REV_AT_EPOCH":3613,"BSTAR":0.00064030377,"MEAN_MOTION_DOT":4.736e-5,"MEAN_MOTION_DDOT":0},{"OBJECT_NAME":"KUIPER-00077","OBJECT_ID":"2025-151J","EPOCH":"2026-03-13T21:06:15.204960","MEAN_MOTION":14.80148959,"ECCENTRICITY":9.657e-5,"INCLINATION":51.9019,"RA_OF_ASC_NODE":279.5468,"ARG_OF_PERICENTER":182.5404,"MEAN_ANOMALY":177.5554,"EPHEMERIS_TYPE":0,"CLASSIFICATION_TYPE":"U","NORAD_CAT_ID":64824,"ELEMENT_SET_NO":999,"REV_AT_EPOCH":3596,"BSTAR":5.6758607e-5,"MEAN_MOTION_DOT":2.13e-6,"MEAN_MOTION_DDOT":0},{"OBJECT_NAME":"KUIPER-00078","OBJECT_ID":"2025-151K","EPOCH":"2026-03-14T17:29:41.818272","MEAN_MOTION":14.79934013,"ECCENTRICITY":0.00010177,"INCLINATION":51.8996,"RA_OF_ASC_NODE":273.3057,"ARG_OF_PERICENTER":80.334,"MEAN_ANOMALY":279.7737,"EPHEMERIS_TYPE":0,"CLASSIFICATION_TYPE":"U","NORAD_CAT_ID":64825,"ELEMENT_SET_NO":999,"REV_AT_EPOCH":3612,"BSTAR":0.00064908201,"MEAN_MOTION_DOT":4.731e-5,"MEAN_MOTION_DDOT":0},{"OBJECT_NAME":"KUIPER-00079","OBJECT_ID":"2025-151L","EPOCH":"2026-03-14T19:47:29.974272","MEAN_MOTION":14.79917896,"ECCENTRICITY":0.00016091,"INCLINATION":51.9083,"RA_OF_ASC_NODE":277.8589,"ARG_OF_PERICENTER":276.6653,"MEAN_ANOMALY":83.4126,"EPHEMERIS_TYPE":0,"CLASSIFICATION_TYPE":"U","NORAD_CAT_ID":64826,"ELEMENT_SET_NO":999,"REV_AT_EPOCH":3726,"BSTAR":0.00058916926,"MEAN_MOTION_DOT":4.271e-5,"MEAN_MOTION_DDOT":0},{"OBJECT_NAME":"KUIPER-00080","OBJECT_ID":"2025-151M","EPOCH":"2026-03-14T22:13:33.487392","MEAN_MOTION":14.79944736,"ECCENTRICITY":8.65e-5,"INCLINATION":51.8985,"RA_OF_ASC_NODE":277.4151,"ARG_OF_PERICENTER":101.923,"MEAN_ANOMALY":258.1829,"EPHEMERIS_TYPE":0,"CLASSIFICATION_TYPE":"U","NORAD_CAT_ID":64827,"ELEMENT_SET_NO":999,"REV_AT_EPOCH":3608,"BSTAR":0.00061070781,"MEAN_MOTION_DOT":4.439e-5,"MEAN_MOTION_DDOT":0}]
